{"fetched_at":"2026-03-29T02:12:04Z","count":15717,"tles":[{"name":"STARLINK-35962","line1":"1 66518U 25265C   26087.61012342  .00033003  00000+0  12028-2 0  9991","line2":"2 66518  43.0026 171.3803 0001425 263.2520  96.8169 15.27598056 20007","category":"Starlink"}]}