{
  "norad_id": 66518,
  "name": "STARLINK-35962",
  "history": [
    {
      "epoch": "2026-03-28T14:38:34.663488",
      "apogee_km": 483.9734278401238,
      "perigee_km": 482.0166329850499,
      "latitude_deg": 30.65219961321128,
      "longitude_deg": 170.37184831988998,
      "semi_major_axis_km": 6861.132030412587,
      "eccentricity": 0.0001426,
      "inclination_deg": 43.0026,
      "raan_deg": 171.3803,
      "arg_perigee_deg": 263.252,
      "mean_anomaly_deg": 96.8169,
      "mean_motion_rev_day": 15.27598056
    }
  ]
}